[{"OBJECT_NAME":"STARLINK-3396","OBJECT_ID":"2022-005AB","EPOCH":"2026-03-09T21:27:32.603904","MEAN_MOTION":15.08837165,"ECCENTRICITY":0.00013733,"INCLINATION":53.2184,"RA_OF_ASC_NODE":298.2057,"ARG_OF_PERICENTER":87.4462,"MEAN_ANOMALY":272.6687,"EPHEMERIS_TYPE":0,"CLASSIFICATION_TYPE":"U","NORAD_CAT_ID":51129,"ELEMENT_SET_NO":999,"REV_AT_EPOCH":22876,"BSTAR":-3.0792652e-5,"MEAN_MOTION_DOT":-7.78e-6,"MEAN_MOTION_DDOT":0},{"OBJECT_NAME":"ONEWEB-0618","OBJECT_ID":"2023-004V","EPOCH":"2026-03-09T21:27:12.326688","MEAN_MOTION":15.11974897,"ECCENTRICITY":0.00107842,"INCLINATION":86.9069,"RA_OF_ASC_NODE":217.8931,"ARG_OF_PERICENTER":307.7231,"MEAN_ANOMALY":52.303,"EPHEMERIS_TYPE":0,"CLASSIFICATION_TYPE":"U","NORAD_CAT_ID":55159,"ELEMENT_SET_NO":999,"REV_AT_EPOCH":16725,"BSTAR":0.00049587895,"MEAN_MOTION_DOT":8.547e-5,"MEAN_MOTION_DDOT":0}]
